CCSDS_OMM_VERS = 2.0
CREATION_DATE  = 
ORIGINATOR     = 

OBJECT_NAME    = STARLINK-36675
OBJECT_ID      = 2026-022R
CENTER_NAME    = EARTH
REF_FRAME      = TEME
TIME_SYSTEM    = UTC
MEAN_ELEMENT_THEORY = SGP/SGP4

EPOCH          = 2026-03-02T15:48:06.703488
MEAN_MOTION    = 15.75308752
ECCENTRICITY   = .0000566
INCLINATION    = 97.2829
RA_OF_ASC_NODE = 95.3114
ARG_OF_PERICENTER = 99.5364
MEAN_ANOMALY   = 260.5965

EPHEMERIS_TYPE = 0
CLASSIFICATION_TYPE = U
NORAD_CAT_ID   = 67663
ELEMENT_SET_NO = 999
REV_AT_EPOCH   = 444
BSTAR          = .24478E-2
MEAN_MOTION_DOT = .383872E-2
MEAN_MOTION_DDOT = 0

CCSDS_OMM_VERS = 2.0
CREATION_DATE  = 
ORIGINATOR     = 

OBJECT_NAME    = STARLINK-36404
OBJECT_ID      = 2026-022S
CENTER_NAME    = EARTH
REF_FRAME      = TEME
TIME_SYSTEM    = UTC
MEAN_ELEMENT_THEORY = SGP/SGP4

EPOCH          = 2026-03-02T15:43:31.041696
MEAN_MOTION    = 15.75206621
ECCENTRICITY   = .0001611
INCLINATION    = 97.2830
RA_OF_ASC_NODE = 95.3150
ARG_OF_PERICENTER = 72.1660
MEAN_ANOMALY   = 287.9781

EPHEMERIS_TYPE = 0
CLASSIFICATION_TYPE = U
NORAD_CAT_ID   = 67664
ELEMENT_SET_NO = 999
REV_AT_EPOCH   = 444
BSTAR          = .2617E-3
MEAN_MOTION_DOT = .39112E-3
MEAN_MOTION_DDOT = 0

CCSDS_OMM_VERS = 2.0
CREATION_DATE  = 
ORIGINATOR     = 

OBJECT_NAME    = STARLINK-36399
OBJECT_ID      = 2026-022T
CENTER_NAME    = EARTH
REF_FRAME      = TEME
TIME_SYSTEM    = UTC
MEAN_ELEMENT_THEORY = SGP/SGP4

EPOCH          = 2026-03-02T15:42:31.662432
MEAN_MOTION    = 15.75229490
ECCENTRICITY   = .0001545
INCLINATION    = 97.2833
RA_OF_ASC_NODE = 95.3161
ARG_OF_PERICENTER = 96.1983
MEAN_ANOMALY   = 263.9458

EPHEMERIS_TYPE = 0
CLASSIFICATION_TYPE = U
NORAD_CAT_ID   = 67665
ELEMENT_SET_NO = 999
REV_AT_EPOCH   = 444
BSTAR          = .13752E-2
MEAN_MOTION_DOT = .210482E-2
MEAN_MOTION_DDOT = 0

CCSDS_OMM_VERS = 2.0
CREATION_DATE  = 
ORIGINATOR     = 

OBJECT_NAME    = STARLINK-36365
OBJECT_ID      = 2026-022U
CENTER_NAME    = EARTH
REF_FRAME      = TEME
TIME_SYSTEM    = UTC
MEAN_ELEMENT_THEORY = SGP/SGP4

EPOCH          = 2026-03-02T15:40:29.910144
MEAN_MOTION    = 15.75216926
ECCENTRICITY   = .0001869
INCLINATION    = 97.2833
RA_OF_ASC_NODE = 95.3181
ARG_OF_PERICENTER = 86.6035
MEAN_ANOMALY   = 273.5444

EPHEMERIS_TYPE = 0
CLASSIFICATION_TYPE = U
NORAD_CAT_ID   = 67666
ELEMENT_SET_NO = 999
REV_AT_EPOCH   = 444
BSTAR          = .97966E-3
MEAN_MOTION_DOT = .148742E-2
MEAN_MOTION_DDOT = 0

CCSDS_OMM_VERS = 2.0
CREATION_DATE  = 
ORIGINATOR     = 

OBJECT_NAME    = STARLINK-36622
OBJECT_ID      = 2026-022V
CENTER_NAME    = EARTH
REF_FRAME      = TEME
TIME_SYSTEM    = UTC
MEAN_ELEMENT_THEORY = SGP/SGP4

EPOCH          = 2026-03-02T15:37:57.806400
MEAN_MOTION    = 15.75189059
ECCENTRICITY   = .0002364
INCLINATION    = 97.2834
RA_OF_ASC_NODE = 95.3209
ARG_OF_PERICENTER = 75.3688
MEAN_ANOMALY   = 284.7839

EPHEMERIS_TYPE = 0
CLASSIFICATION_TYPE = U
NORAD_CAT_ID   = 67667
ELEMENT_SET_NO = 999
REV_AT_EPOCH   = 444
BSTAR          = .10383E-2
MEAN_MOTION_DOT = .157629E-2
MEAN_MOTION_DDOT = 0

CCSDS_OMM_VERS = 2.0
CREATION_DATE  = 
ORIGINATOR     = 

OBJECT_NAME    = STARLINK-36625
OBJECT_ID      = 2026-022W
CENTER_NAME    = EARTH
REF_FRAME      = TEME
TIME_SYSTEM    = UTC
MEAN_ELEMENT_THEORY = SGP/SGP4

EPOCH          = 2026-03-02T15:35:55.677408
MEAN_MOTION    = 15.75191862
ECCENTRICITY   = .0002003
INCLINATION    = 97.2842
RA_OF_ASC_NODE = 95.3231
ARG_OF_PERICENTER = 87.5303
MEAN_ANOMALY   = 272.6192

EPHEMERIS_TYPE = 0
CLASSIFICATION_TYPE = U
NORAD_CAT_ID   = 67668
ELEMENT_SET_NO = 999
REV_AT_EPOCH   = 444
BSTAR          = .68929E-3
MEAN_MOTION_DOT = .103955E-2
MEAN_MOTION_DDOT = 0

CCSDS_OMM_VERS = 2.0
CREATION_DATE  = 
ORIGINATOR     = 

OBJECT_NAME    = STARLINK-36639
OBJECT_ID      = 2026-022X
CENTER_NAME    = EARTH
REF_FRAME      = TEME
TIME_SYSTEM    = UTC
MEAN_ELEMENT_THEORY = SGP/SGP4

EPOCH          = 2026-03-02T15:33:22.695840
MEAN_MOTION    = 15.75240464
ECCENTRICITY   = .0000976
INCLINATION    = 97.2837
RA_OF_ASC_NODE = 95.3241
ARG_OF_PERICENTER = 96.1618
MEAN_ANOMALY   = 263.9759

EPHEMERIS_TYPE = 0
CLASSIFICATION_TYPE = U
NORAD_CAT_ID   = 67669
ELEMENT_SET_NO = 999
REV_AT_EPOCH   = 444
BSTAR          = .12814E-2
MEAN_MOTION_DOT = .195875E-2
MEAN_MOTION_DDOT = 0

CCSDS_OMM_VERS = 2.0
CREATION_DATE  = 
ORIGINATOR     = 

OBJECT_NAME    = STARLINK-36596
OBJECT_ID      = 2026-022Y
CENTER_NAME    = EARTH
REF_FRAME      = TEME
TIME_SYSTEM    = UTC
MEAN_ELEMENT_THEORY = SGP/SGP4

EPOCH          = 2026-03-02T13:59:22.011360
MEAN_MOTION    = 15.75285711
ECCENTRICITY   = .0001518
INCLINATION    = 97.2831
RA_OF_ASC_NODE = 95.2608
ARG_OF_PERICENTER = 78.8753
MEAN_ANOMALY   = 281.2683

EPHEMERIS_TYPE = 0
CLASSIFICATION_TYPE = U
NORAD_CAT_ID   = 67670
ELEMENT_SET_NO = 999
REV_AT_EPOCH   = 443
BSTAR          = .16746E-2
MEAN_MOTION_DOT = .258417E-2
MEAN_MOTION_DDOT = 0

CCSDS_OMM_VERS = 2.0
CREATION_DATE  = 
ORIGINATOR     = 

OBJECT_NAME    = STARLINK-36297
OBJECT_ID      = 2026-022Z
CENTER_NAME    = EARTH
REF_FRAME      = TEME
TIME_SYSTEM    = UTC
MEAN_ELEMENT_THEORY = SGP/SGP4

EPOCH          = 2026-03-02T15:27:47.678976
MEAN_MOTION    = 15.75201009
ECCENTRICITY   = .0001605
INCLINATION    = 97.2841
RA_OF_ASC_NODE = 95.3297
ARG_OF_PERICENTER = 82.8255
MEAN_ANOMALY   = 277.3193

EPHEMERIS_TYPE = 0
CLASSIFICATION_TYPE = U
NORAD_CAT_ID   = 67671
ELEMENT_SET_NO = 999
REV_AT_EPOCH   = 444
BSTAR          = .14107E-2
MEAN_MOTION_DOT = .215793E-2
MEAN_MOTION_DDOT = 0

CCSDS_OMM_VERS = 2.0
CREATION_DATE  = 
ORIGINATOR     = 

OBJECT_NAME    = STARLINK-36616
OBJECT_ID      = 2026-022AA
CENTER_NAME    = EARTH
REF_FRAME      = TEME
TIME_SYSTEM    = UTC
MEAN_ELEMENT_THEORY = SGP/SGP4

EPOCH          = 2026-03-02T15:29:49.174656
MEAN_MOTION    = 15.75196006
ECCENTRICITY   = .0000753
INCLINATION    = 97.2849
RA_OF_ASC_NODE = 95.3279
ARG_OF_PERICENTER = 139.7129
MEAN_ANOMALY   = 220.4192

EPHEMERIS_TYPE = 0
CLASSIFICATION_TYPE = U
NORAD_CAT_ID   = 67672
ELEMENT_SET_NO = 999
REV_AT_EPOCH   = 444
BSTAR          = .21772E-2
MEAN_MOTION_DOT = .337896E-2
MEAN_MOTION_DDOT = 0

CCSDS_OMM_VERS = 2.0
CREATION_DATE  = 
ORIGINATOR     = 

OBJECT_NAME    = COSMOS 2600
OBJECT_ID      = 2026-023A
CENTER_NAME    = EARTH
REF_FRAME      = TEME
TIME_SYSTEM    = UTC
MEAN_ELEMENT_THEORY = SGP/SGP4

EPOCH          = 2026-02-28T07:05:07.619712
MEAN_MOTION    = 15.83528492
ECCENTRICITY   = .00032481
INCLINATION    = 96.6452
RA_OF_ASC_NODE = 135.2352
ARG_OF_PERICENTER = 47.0444
MEAN_ANOMALY   = 313.1099

EPHEMERIS_TYPE = 0
CLASSIFICATION_TYPE = U
NORAD_CAT_ID   = 67674
ELEMENT_SET_NO = 999
REV_AT_EPOCH   = 356
BSTAR          = .32745834E-3
MEAN_MOTION_DOT = .71571E-3
MEAN_MOTION_DDOT = 0

CCSDS_OMM_VERS = 2.0
CREATION_DATE  = 
ORIGINATOR     = 

OBJECT_NAME    = 2026-023B
OBJECT_ID      = 2026-023B
CENTER_NAME    = EARTH
REF_FRAME      = TEME
TIME_SYSTEM    = UTC
MEAN_ELEMENT_THEORY = SGP/SGP4

EPOCH          = 2026-03-02T08:39:52.056288
MEAN_MOTION    = 15.22784330
ECCENTRICITY   = .00190379
INCLINATION    = 96.6376
RA_OF_ASC_NODE = 135.1582
ARG_OF_PERICENTER = 156.9230
MEAN_ANOMALY   = 203.2868

EPHEMERIS_TYPE = 0
CLASSIFICATION_TYPE = U
NORAD_CAT_ID   = 67675
ELEMENT_SET_NO = 999
REV_AT_EPOCH   = 374
BSTAR          = .54032032E-3
MEAN_MOTION_DOT = .12638E-3
MEAN_MOTION_DDOT = 0

CCSDS_OMM_VERS = 2.0
CREATION_DATE  = 
ORIGINATOR     = 

OBJECT_NAME    = 2026-023C
OBJECT_ID      = 2026-023C
CENTER_NAME    = EARTH
REF_FRAME      = TEME
TIME_SYSTEM    = UTC
MEAN_ELEMENT_THEORY = SGP/SGP4

EPOCH          = 2026-03-02T21:15:06.900192
MEAN_MOTION    = 15.22904678
ECCENTRICITY   = .0020141
INCLINATION    = 96.6408
RA_OF_ASC_NODE = 135.6442
ARG_OF_PERICENTER = 145.5559
MEAN_ANOMALY   = 214.6990

EPHEMERIS_TYPE = 0
CLASSIFICATION_TYPE = U
NORAD_CAT_ID   = 67676
ELEMENT_SET_NO = 999
REV_AT_EPOCH   = 398
BSTAR          = .63712E-3
MEAN_MOTION_DOT = .14979E-3
MEAN_MOTION_DDOT = 0

CCSDS_OMM_VERS = 2.0
CREATION_DATE  = 
ORIGINATOR     = 

OBJECT_NAME    = 2026-023D
OBJECT_ID      = 2026-023D
CENTER_NAME    = EARTH
REF_FRAME      = TEME
TIME_SYSTEM    = UTC
MEAN_ELEMENT_THEORY = SGP/SGP4

EPOCH          = 2026-03-02T21:18:25.468992
MEAN_MOTION    = 15.22722176
ECCENTRICITY   = .0020357
INCLINATION    = 96.6439
RA_OF_ASC_NODE = 135.6322
ARG_OF_PERICENTER = 150.3983
MEAN_ANOMALY   = 209.8413

EPHEMERIS_TYPE = 0
CLASSIFICATION_TYPE = U
NORAD_CAT_ID   = 67677
ELEMENT_SET_NO = 999
REV_AT_EPOCH   = 381
BSTAR          = .61151E-3
MEAN_MOTION_DOT = .14298E-3
MEAN_MOTION_DDOT = 0

CCSDS_OMM_VERS = 2.0
CREATION_DATE  = 
ORIGINATOR     = 

OBJECT_NAME    = 2026-023E
OBJECT_ID      = 2026-023E
CENTER_NAME    = EARTH
REF_FRAME      = TEME
TIME_SYSTEM    = UTC
MEAN_ELEMENT_THEORY = SGP/SGP4

EPOCH          = 2026-03-02T21:15:43.775712
MEAN_MOTION    = 15.22883546
ECCENTRICITY   = .0020139
INCLINATION    = 96.6332
RA_OF_ASC_NODE = 135.6150
ARG_OF_PERICENTER = 149.8839
MEAN_ANOMALY   = 210.3562

EPHEMERIS_TYPE = 0
CLASSIFICATION_TYPE = U
NORAD_CAT_ID   = 67678
ELEMENT_SET_NO = 999
REV_AT_EPOCH   = 381
BSTAR          = .70893E-3
MEAN_MOTION_DOT = .16667E-3
MEAN_MOTION_DDOT = 0

